[{"OBJECT_NAME":"STARLINK-1816","OBJECT_ID":"2020-073AW","EPOCH":"2026-03-10T00:00:02.999808","MEAN_MOTION":15.7373021,"ECCENTRICITY":0.00013796,"INCLINATION":53.0412,"RA_OF_ASC_NODE":197.1696,"ARG_OF_PERICENTER":136.5835,"MEAN_ANOMALY":114.6456,"EPHEMERIS_TYPE":0,"CLASSIFICATION_TYPE":"U","NORAD_CAT_ID":46714,"ELEMENT_SET_NO":999,"REV_AT_EPOCH":597,"BSTAR":0.00068317035,"MEAN_MOTION_DOT":0.00098636,"MEAN_MOTION_DDOT":0},{"OBJECT_NAME":"STARLINK-11347 [DTC]","OBJECT_ID":"2025-035C","EPOCH":"2026-03-09T05:17:43.704672","MEAN_MOTION":15.70894584,"ECCENTRICITY":0.00026467,"INCLINATION":43.0025,"RA_OF_ASC_NODE":18.4792,"ARG_OF_PERICENTER":281.5716,"MEAN_ANOMALY":78.4855,"EPHEMERIS_TYPE":0,"CLASSIFICATION_TYPE":"U","NORAD_CAT_ID":63054,"ELEMENT_SET_NO":999,"REV_AT_EPOCH":6114,"BSTAR":0.0017134236,"MEAN_MOTION_DOT":0.00226018,"MEAN_MOTION_DDOT":0}]
